NORAD_CAT_ID,OBJECT_NAME,OBJECT_TYPE,EPOCH,MEAN_MOTION,ECCENTRICITY,INCLINATION,RA_OF_ASC_NODE,ARG_OF_PERICENTER,MEAN_ANOMALY,BSTAR,MEAN_MOTION_DOT,MEAN_MOTION_DDOT,TLE_LINE0,TLE_LINE1,TLE_LINE2,SEMIMAJOR_AXIS,PERIOD,APOGEE,PERIGEE,DECAYED
54804.0,STARLINK-5422,PAYLOAD,2023-09-20 21:29:50,15.0882135,0.0001519,53.2159,112.6998,76.7672,283.349,-0.00024913,-4.249e-05,0.0,0 STARLINK-5422,1 54804U 22175AY  23263.89572592 -.00004249  00000-0 -24913-3 0  9994,2 54804  53.2159 112.6998 0001519  76.7672 283.3490 15.08821350 44140,6917.937,95.439,540.853,538.752,0.0
54804.0,STARLINK-5422,PAYLOAD,2023-09-21 13:23:42,15.08827384,0.0001461,53.2162,109.7219,114.0558,246.0587,-1.4136e-05,-5.13e-06,0.0,0 STARLINK-5422,1 54804U 22175AY  23264.55813004 -.00000513  00000-0 -14136-4 0  9991,2 54804  53.2162 109.7219 0001461 114.0558 246.0587 15.08827384 44249,6917.919,95.438,540.795,538.773,0.0
54804.0,STARLINK-5422,PAYLOAD,2023-09-21 21:20:37,15.08841399,0.0001313,53.2158,108.2397,102.1944,257.9196,0.00016417,2.326e-05,0.0,0 STARLINK-5422,1 54804U 22175AY  23264.88932556  .00002326  00000-0  16417-3 0  9996,2 54804  53.2158 108.2397 0001313 102.1944 257.9196 15.08841399 44292,6917.876,95.437,540.649,538.833,0.0
54804.0,STARLINK-5422,PAYLOAD,2023-09-22 13:14:29,15.08844396,0.0001381,53.2155,105.2669,86.7646,273.3504,0.00048556,7.449e-05,0.0,0 STARLINK-5422,1 54804U 22175AY  23265.55173007  .00007449  00000-0  48556-3 0  9999,2 54804  53.2155 105.2669 0001381  86.7646 273.3504 15.08844396 44395,6917.867,95.437,540.687,538.777,0.0
54804.0,STARLINK-5422,PAYLOAD,2023-09-22 19:36:01,15.08850902,0.0001392,53.2156,104.077,89.6091,270.506,0.00049137,7.543e-05,0.0,0 STARLINK-5422,1 54804U 22175AY  23265.81668749  .00007543  00000-0  49137-3 0  9991,2 54804  53.2156 104.0770 0001392  89.6091 270.5060 15.08850902 44435,6917.847,95.437,540.675,538.749,0.0
54804.0,STARLINK-5422,PAYLOAD,2023-09-23 19:26:48,15.08852926,0.0001298,53.215,99.6153,94.681,265.433,0.00027317,4.064e-05,0.0,0 STARLINK-5422,1 54804U 22175AY  23266.81028173  .00004064  00000-0  27317-3 0  9994,2 54804  53.2150  99.6153 0001298  94.6810 265.4330 15.08852926 42421,6917.841,95.437,540.604,538.808,0.0
54804.0,STARLINK-5422,PAYLOAD,2023-09-24 12:56:02,15.08843426,0.0001328,53.216,96.345,85.7266,274.3877,6.5083e-05,7.48e-06,0.0,0 STARLINK-5422,1 54804U 22175AY  23267.53892291  .00000748  00000-0  65083-4 0  9992,2 54804  53.2160  96.3450 0001328  85.7266 274.3877 15.08843426 44697,6917.87,95.437,540.654,538.816,0.0
54804.0,STARLINK-5422,PAYLOAD,2023-09-24 19:17:35,15.08847988,0.000124,53.2158,95.1546,93.8163,266.2971,0.0001295,1.774e-05,0.0,0 STARLINK-5422,1 54804U 22175AY  23267.80388141  .00001774  00000-0  12950-3 0  9990,2 54804  53.2158  95.1546 0001240  93.8163 266.2971 15.08847988 42573,6917.856,95.437,540.579,538.863,0.0
54804.0,STARLINK-5422,PAYLOAD,2023-09-25 12:46:50,15.08843077,0.0001274,53.2161,91.8842,89.498,270.6158,0.00011276,1.507e-05,0.0,0 STARLINK-5422,1 54804U 22175AY  23268.53252370  .00001507  00000-0  11276-3 0  9999,2 54804  53.2161  91.8842 0001274  89.4980 270.6158 15.08843077 44847,6917.871,95.437,540.617,538.855,0.0
54804.0,STARLINK-5422,PAYLOAD,2023-09-25 19:08:22,15.0884797,0.000124,53.2162,90.6949,89.5106,270.6028,0.00020157,2.922e-05,0.0,0 STARLINK-5422,1 54804U 22175AY  23268.79748120  .00002922  00000-0  20157-3 0  9990,2 54804  53.2162  90.6949 0001240  89.5106 270.6028 15.08847970 42724,6917.856,95.437,540.579,538.863,0.0
54804.0,STARLINK-5422,PAYLOAD,2023-09-26 12:37:37,15.08835024,0.0001185,53.2168,87.4243,88.9364,271.1763,1.3261e-05,-7.7e-07,0.0,0 STARLINK-5422,1 54804U 22175AY  23269.52612835 -.00000077  00000-0  13261-4 0  9994,2 54804  53.2168  87.4243 0001185  88.9364 271.1763 15.08835024 44998,6917.896,95.438,540.58,538.941,0.0
54804.0,STARLINK-5422,PAYLOAD,2023-09-26 17:23:47,15.08832118,0.0001286,53.2159,86.5331,84.7097,275.4042,-2.537e-05,-6.92e-06,0.0,0 STARLINK-5422,1 54804U 22175AY  23269.72485119 -.00000692  00000-0 -25370-4 0  9997,2 54804  53.2159  86.5331 0001286  84.7097 275.4042 15.08832118 42867,6917.904,95.438,540.659,538.88,0.0
54804.0,STARLINK-5422,PAYLOAD,2023-09-26 18:59:10,15.0883249,0.0001442,53.2165,86.2344,96.03,264.0856,-2.6134e-05,-7.04e-06,0.0,0 STARLINK-5422,1 54804U 22175AY  23269.79109082 -.00000704  00000-0 -26134-4 0  9999,2 54804  53.2165  86.2344 0001442  96.0300 264.0856 15.08832490 45034,6917.903,95.438,540.766,538.771,0.0
54804.0,STARLINK-5422,PAYLOAD,2023-09-27 10:53:01,15.08834203,0.0001287,53.2153,83.2592,87.5855,272.5285,1.3631e-05,-7.1e-07,0.0,0 STARLINK-5422,1 54804U 22175AY  23270.45349233 -.00000071  00000-0  13631-4 0  9992,2 54804  53.2153  83.2592 0001287  87.5855 272.5285 15.08834203 45135,6917.898,95.438,540.653,538.873,0.0
54804.0,STARLINK-5422,PAYLOAD,2023-09-27 17:14:34,15.08840947,0.0001361,53.2156,82.0697,93.9989,266.1159,7.998e-05,9.85e-06,0.0,0 STARLINK-5422,1 54804U 22175AY  23270.71844926  .00000985  00000-0  79980-4 0  9992,2 54804  53.2156  82.0697 0001361  93.9989 266.1159 15.08840947 43019,6917.877,95.437,540.684,538.801,0.0
54804.0,STARLINK-5422,PAYLOAD,2023-09-28 10:43:48,15.08837977,0.0001417,53.2155,78.7985,92.9089,267.2066,0.00015873,2.239e-05,0.0,0 STARLINK-5422,1 54804U 22175AY  23271.44709234  .00002239  00000-0  15873-3 0  9999,2 54804  53.2155  78.7985 0001417  92.9089 267.2066 15.08837977 45281,6917.887,95.438,540.732,538.771,0.0
54804.0,STARLINK-5422,PAYLOAD,2023-09-28 18:40:44,15.0884003,0.0001385,53.2158,77.3117,91.2444,268.8706,0.00016051,2.268e-05,0.0,0 STARLINK-5422,1 54804U 22175AY  23271.77829226  .00002268  00000-0  16051-3 0  9990,2 54804  53.2158  77.3117 0001385  91.2444 268.8706 15.08840030 43175,6917.88,95.438,540.703,538.787,0.0
54804.0,STARLINK-5422,PAYLOAD,2023-09-29 10:34:35,15.08842613,0.0001352,53.2159,74.3382,84.8154,275.2992,0.00014434,2.01e-05,0.0,0 STARLINK-5422,1 54804U 22175AY  23272.44069143  .00002010  00000-0  14434-3 0  9997,2 54804  53.2159  74.3382 0001352  84.8154 275.2992 15.08842613 45436,6917.872,95.437,540.673,538.802,0.0
54804.0,STARLINK-5422,PAYLOAD,2023-09-29 18:31:31,15.08852586,0.0001618,53.2171,72.8529,70.8255,289.2913,0.00021399,3.12e-05,0.0,0 STARLINK-5422,1 54804U 22175AY  23272.77188664  .00003120  00000-0  21399-3 0  9994,2 54804  53.2171  72.8529 0001618  70.8255 289.2913 15.08852586 43322,6917.842,95.437,540.826,538.588,0.0
54804.0,STARLINK-5422,PAYLOAD,2023-09-30 10:25:22,15.08842258,0.0001334,53.2174,69.8783,89.5656,270.5489,8.0284e-05,9.9e-06,0.0,0 STARLINK-5422,1 54804U 22175AY  23273.43428977  .00000990  00000-0  80284-4 0  9993,2 54804  53.2174  69.8783 0001334  89.5656 270.5489 15.08842258 43427,6917.873,95.437,540.661,538.816,0.0
54804.0,STARLINK-5422,PAYLOAD,2023-10-01 13:26:55,15.08847073,0.0001299,53.2167,64.8225,90.5792,269.5349,8.2315e-05,1.023e-05,0.0,0 STARLINK-5422,1 54804U 22175AY  23274.56036631  .00001023  00000-0  82315-4 0  9995,2 54804  53.2167  64.8225 0001299  90.5792 269.5349 15.08847073 45759,6917.859,95.437,540.622,538.825,0.0
54804.0,STARLINK-5422,PAYLOAD,2023-10-01 16:37:41,15.08851819,0.0001432,53.2167,64.227,86.1432,273.9724,0.00010889,1.446e-05,0.0,0 STARLINK-5422,1 54804U 22175AY  23274.69284302  .00001446  00000-0  10889-3 0  9994,2 54804  53.2167  64.2270 0001432  86.1432 273.9724 15.08851819 43616,6917.844,95.437,540.7,538.719,0.0
54804.0,STARLINK-5422,PAYLOAD,2023-10-01 19:48:27,15.08856237,0.0001398,53.2169,63.6313,90.7901,269.3251,0.00017466,2.494e-05,0.0,0 STARLINK-5422,1 54804U 22175AY  23274.82532001  .00002494  00000-0  17466-3 0  9993,2 54804  53.2169  63.6313 0001398  90.7901 269.3251 15.08856237 45796,6917.831,95.437,540.663,538.729,0.0
54804.0,STARLINK-5422,PAYLOAD,2023-10-02 10:06:56,15.08835179,0.0001226,53.2165,60.9564,91.643,268.4702,1.2615e-05,-8.7e-07,0.0,0 STARLINK-5422,1 54804U 22175AY  23275.42149128 -.00000087  00000-0  12615-4 0  9993,2 54804  53.2165  60.9564 0001226  91.6430 268.4702 15.08835179 43721,6917.895,95.438,540.608,538.912,0.0
54804.0,STARLINK-5422,PAYLOAD,2023-10-02 14:53:06,15.08838262,0.0001446,53.2166,60.0644,96.1653,263.9504,6.8208e-05,7.98e-06,0.0,0 STARLINK-5422,1 54804U 22175AY  23275.62021073  .00000798  00000-0  68208-4 0  9990,2 54804  53.2166  60.0644 0001446  96.1653 263.9504 15.08838262 45912,6917.886,95.438,540.751,538.75,0.0
54804.0,STARLINK-5422,PAYLOAD,2023-10-03 14:43:53,15.08844745,0.0001388,53.2168,55.604,93.0222,267.0929,0.00022643,3.318e-05,0.0,0 STARLINK-5422,1 54804U 22175AY  23276.61381092  .00003318  00000-0  22643-3 0  9993,2 54804  53.2168  55.6040 0001388  93.0222 267.0929 15.08844745 46063,6917.866,95.437,540.691,538.771,0.0
54804.0,STARLINK-5422,PAYLOAD,2023-10-03 16:19:16,15.08849239,0.0001286,53.2168,55.307,90.2155,269.8985,0.00031772,4.773e-05,0.0,0 STARLINK-5422,1 54804U 22175AY  23276.68004941  .00004773  00000-0  31772-3 0  9994,2 54804  53.2168  55.3070 0001286  90.2155 269.8985 15.08849239 43910,6917.852,95.437,540.607,538.828,0.0
54804.0,STARLINK-5422,PAYLOAD,2023-10-04 09:48:30,15.08843404,0.0001299,53.2166,52.0368,88.9768,271.1373,0.00018854,2.714e-05,0.0,0 STARLINK-5422,1 54804U 22175AY  23277.40869193  .00002714  00000-0  18854-3 0  9992,2 54804  53.2166  52.0368 0001299  88.9768 271.1373 15.08843404 44028,6917.87,95.437,540.634,538.836,0.0
54804.0,STARLINK-5422,PAYLOAD,2023-10-04 12:59:17,15.08846209,0.0001343,53.217,51.4418,89.2537,270.8609,0.0002431,3.584e-05,0.0,0 STARLINK-5422,1 54804U 22175AY  23277.54117033  .00003584  00000-0  24310-3 0  9996,2 54804  53.2170  51.4418 0001343  89.2537 270.8609 15.08846209 46206,6917.861,95.437,540.655,538.797,0.0
54804.0,STARLINK-5422,PAYLOAD,2023-10-04 16:10:03,15.088509,0.000126,53.2168,50.8477,84.6998,275.4138,0.00029768,4.454e-05,0.0,0 STARLINK-5422,1 54804U 22175AY  23277.67364784  .00004454  00000-0  29768-3 0  9996,2 54804  53.2168  50.8477 0001260  84.6998 275.4138 15.08850900 46222,6917.847,95.437,540.584,538.84,0.0
